QIANFAN-57              
1 62787U 25016C   25208.54601785  .00000123  00000+0  17145-3 0  9993
2 62787  88.9858 117.4421 0002081  91.9673 268.1716 13.50955337 28545
QIANFAN-58              
1 62788U 25016D   25208.22099992  .00000164  00000+0  23579-3 0  9993
2 62788  88.9828 117.3502 0015522  30.1685 330.0356 13.50953968 28541
QIANFAN-59              
1 62789U 25016E   25208.23341696  .00000158  00000+0  22601-3 0  9994
2 62789  88.9852 117.3865 0016502  32.6989 327.5180 13.50958386 28549
QIANFAN-60              
1 62790U 25016F   25208.22500874  .00000169  00000+0  24224-3 0  9995
2 62790  88.9833 117.3933 0016918  30.4956 329.7175 13.50966727 28521
QIANFAN-61              
1 62791U 25016G   25208.53379608  .00000145  00000+0  20581-3 0  9995
2 62791  88.9901 117.4253 0016291  28.7528 331.4517 13.50956312 28588
QIANFAN-62              
1 62792U 25016H   25208.53772998  .00000145  00000+0  20569-3 0  9991
2 62792  88.9847 117.3681 0017700  28.5514 331.6603 13.50955193 28574
QIANFAN-63              
1 62793U 25016J   25208.55007405  .00000154  00000+0  21949-3 0  9991
2 62793  88.9854 117.3063 0017616  32.7084 327.5154 13.50952274 28619
QIANFAN-64              
1 62794U 25016K   25207.87523983  .00000143  00000+0  20345-3 0  9997
2 62794  88.9841 117.3741 0015358  29.5538 330.6478 13.50960786 28518
